Company_Name,Phone,Website,Email,City,Province,Service_Area_Cities,Brands_Installed,Services,Google_Maps_Link,Notes,Verification_Status
ROMA Heating & Cooling,+1-604-924-7273,romaheating.ca,info@romaheating.ca,Burnaby,BC,"Vancouver, Burnaby, Surrey, Richmond, Coquitlam, Langley, Delta, North Vancouver, West Vancouver","Mitsubishi, Daikin, Lennox, Trane, Carrier, Fujitsu, Bosch, LG","Heat Pumps, Gas Backup, Hydronics",https://maps.google.com/?q=ROMA+Heating+Cooling+2800+Douglas+Rd+Burnaby+BC,Serving Metro Vancouver since 1999; 50 staff; Red Seal certified; residential + commercial + government; boiler services; 24/7; CAUTION: shares listed address with HeatLand and Nest Heating,Verified_Website
Eco Pro Heating & Cooling,+1-604-725-4485,ecoproheating.ca,contact@ecoproheating.ca,North Vancouver,BC,"Vancouver, North Vancouver, West Vancouver, Burnaby",,Heat Pumps,https://maps.google.com/?q=Eco+Pro+Heating+Cooling+130+Lonsdale+Ave+North+Vancouver+BC,20+ years experience; 300+ 5-star reviews; CleanBC certified; ductless mini-split + central air-source + hybrid dual-fuel,Verified_Website
Greentech Air Conditioning and Heating,+1-604-493-2033,greentechhvacsystems.com,,North Vancouver,BC,"Vancouver, North Vancouver, Burnaby, Coquitlam, Whistler, Lower Mainland",Daikin,"Heat Pumps, Gas Backup",https://maps.google.com/?q=Greentech+Air+Conditioning+Heating+1863+Welch+St+North+Vancouver+BC,BBB Accredited A+; Daikin ductless and central; 18-20 SEER; residential and commercial; boiler services noted,Verified_Website
TEK Climate Heating & Air Conditioning,+1-778-245-4822,tekclimate.ca,,Maple Ridge,BC,"Vancouver, North Vancouver, Maple Ridge, Burnaby, Lower Mainland",Lennox,Heat Pumps,https://maps.google.com/?q=TEK+Climate+Heating+Air+Conditioning+Maple+Ridge+BC,Lennox Authorized Dealer; 4.9/5 rating 328 Google reviews; 2 locations; furnace + boiler + heat pump + generator,Verified_Website
Moore & Russell Heating and Air Conditioning,+1-604-243-2833,mrheating.com,,Port Coquitlam,BC,"Vancouver, Port Coquitlam, Coquitlam, Burnaby, Surrey",,"Heat Pumps, Gas Backup",https://maps.google.com/?q=Moore+Russell+Heating+575+Seaborne+Ave+Port+Coquitlam+BC,4.7/5 with 2555+ Google reviews; 24/7 emergency; plumbing and electrical services also offered,Verified_Website
Combined Comfort Systems,+1-604-514-1132,vancouverheatpumps.ca,info@combinedcomfortsystems.com,Surrey,BC,"Vancouver, North Vancouver, West Vancouver, Surrey, Lower Mainland",Mitsubishi,Heat Pumps,https://maps.google.com/?q=Combined+Comfort+Systems+106+Enterprise+Way+Surrey+BC,Mitsubishi Zuba-Central and Zuba-Multi specialist; handles CleanBC and City of Vancouver rebate paperwork; residential focus,Verified_Website
Cascadia HVAC,+1-604-359-0997,cascadiahvac.com,cascadiaenergygroup@gmail.com,Vancouver,BC,"Vancouver, North Vancouver, Burnaby, Sea to Sky Corridor, Lower Mainland",,"Heat Pumps, Gas Backup",https://maps.google.com/?q=Cascadia+HVAC+999+W+Broadway+Vancouver+BC,Full-electric heat pump focus; HRV installation; locally owned; Mon-Fri 8:30-5PM,Verified_Website
Penguin HVAC,+1-778-653-3044,penguinhvac.ca,info@penguinhvac.ca,Burnaby,BC,"Vancouver, Burnaby, Lower Mainland",Daikin,Heat Pumps,https://maps.google.com/?q=Penguin+HVAC+7777+Royal+Oak+Ave+Burnaby+BC,Founded 2019; Daikin premier brand with 10-year warranty; residential and commercial; $6K-$20K range noted,Verified_Website
BCRC Heating and Cooling,+1-604-781-7272,bcrcheating.com,bcrc.p.h@gmail.com,Burnaby,BC,"Vancouver, Burnaby, Coquitlam",,"Heat Pumps, Gas Backup, Hydronics",https://maps.google.com/?q=BCRC+Heating+Cooling+6851+Sellers+Ave+Burnaby+BC,FortisBC Trade Ally; 10+ years experience; 24/7; boiler installation offered,Verified_Website
VanHeat Services,+1-604-281-4790,vanheatservices.com,,North Vancouver,BC,"Vancouver, North Vancouver, Coquitlam, Metro Vancouver",Lennox,Heat Pumps,https://maps.google.com/?q=VanHeat+Services+220+145+Chadwick+Court+North+Vancouver+BC,18+ years experience; Lennox dealer; 24/7 furnace repair; residential and light commercial,Verified_Website
HeatLand Heating & Air Conditioning,+1-604-330-3812,heatland.ca,info@heatland.ca,Burnaby,BC,"Vancouver, Burnaby, Surrey, Richmond, Coquitlam, Langley, Delta","Lennox, Trane",Heat Pumps,https://maps.google.com/?q=HeatLand+Heating+2800+Douglas+Rd+Burnaby+BC,Lennox Premier Dealer; FortisBC Trade Ally; BC Safety Authority member; CAUTION: shares listed address with ROMA Heating and Nest Heating — recommend independent verification,Verified_Website
Nest Heating & Air Conditioning,+1-604-210-8817,nestheating.ca,info@nestheating.ca,Burnaby,BC,"Vancouver, Burnaby, Richmond, Surrey, Coquitlam, Langley, North Vancouver, West Vancouver, Delta, Maple Ridge, Abbotsford","Lennox, Navien","Heat Pumps, Hydronics",https://maps.google.com/?q=Nest+Heating+2800+Douglas+Rd+Burnaby+BC,Lennox Authorized Dealer; tankless water heater services; 10+ years; CAUTION: shares listed address with ROMA Heating and HeatLand — recommend independent verification,Verified_Website
Greenfoot Energy Solutions,+1-778-907-1314,greenfootenergy.ca,,Surrey,BC,"Vancouver, Surrey, Burnaby, Coquitlam, North Vancouver, West Vancouver, Richmond, Langley, Delta, Maple Ridge, Squamish","Mitsubishi, Nordic (Geothermal)","Heat Pumps, Air-to-Water",https://maps.google.com/?q=Greenfoot+Energy+Solutions+3475+194+Street+Surrey+BC,Geothermal/ground-source capability; spray foam insulation; home energy assessments; mini-split + ducted + geothermal systems,Verified_Website
Comfort Plus Heating and Air Conditioning,+1-604-554-7587,comfortplus.ca,,Port Coquitlam,BC,"Vancouver, Coquitlam, Port Coquitlam, Burnaby, Richmond, Surrey, Langley, Delta, Chilliwack","Daikin, Carrier",Heat Pumps,https://maps.google.com/?q=Comfort+Plus+Heating+1628+Kebet+Way+Port+Coquitlam+BC,Carrier and Daikin dealer; plumbing + electrical also offered; rebate assistance; financing via FinanceIt,Verified_Website
Knowledge HVAC & Refrigeration Ltd.,+1-778-522-5669,knowledgehvacr.ca,info@knowledgehvacr.ca,Surrey,BC,"Vancouver, Lower Mainland, Fraser Valley",,"Heat Pumps, VRF",https://maps.google.com/?q=Knowledge+HVAC+Refrigeration+13909+102+Ave+Surrey+BC,BCIT and JARTS trained; FortisBC Trade Ally; commercial refrigeration; VRF experience confirmed; 24/7 emergency; 1000+ clients served,Verified_Website
Ariana Heating & Air Conditioning Ltd.,+1-778-861-7120,arianaheating.ca,info@arianaheating.ca,Maple Ridge,BC,"Vancouver, Maple Ridge, Port Coquitlam, Lower Mainland",,"Heat Pumps, Gas Backup, Hydronics",https://maps.google.com/?q=Ariana+Heating+12409+214+St+Maple+Ridge+BC,Founded 2006; all brands; gas/oil/electric furnaces + water heaters + boilers + heat pumps; 24/7 emergency,Verified_Website
Ashton Plumbing Heating & Air Conditioning,+1-604-373-6522,callashton.com,,Richmond,BC,"Vancouver, Richmond, Burnaby, Surrey, Lower Mainland",Mitsubishi,Heat Pumps,https://maps.google.com/?q=Ashton+Plumbing+Heating+4631+Shell+Rd+Richmond+BC,Founded 1987; 4.7/5 with 3508 reviews; Mitsubishi Mr. Slim specialist; full plumbing + HVAC + electrical; residential and commercial,Verified_Website
Northwind Heating Cooling and Fireplace Showroom,+1-604-572-7944,northwindheating.com,northwindheating@shaw.ca,Surrey,BC,"Surrey, Langley, Delta, White Rock, Lower Mainland","Daikin, Lennox","Heat Pumps, Gas Backup",https://maps.google.com/?q=Northwind+Heating+14772+64+Ave+Surrey+BC,BBB Accredited A+; Daikin Authorized Dealer; in business since 1989; ducted and ductless; fireplace showroom; rebate assistance; FortisBC partner,Verified_Website
Parkinson's Heating Ltd.,+1-604-599-8444,parkinsonsheating.com,comfort@parkinsonsheating.com,Surrey,BC,"Surrey, Langley, Delta, Lower Mainland",Lennox,"Heat Pumps, Gas Backup, Hydronics",https://maps.google.com/?q=Parkinsons+Heating+7566+134A+St+Surrey+BC,Lennox and Valor Authorized Dealer; serving Lower Mainland since 1947; gas fitters licensed and bonded; Home Performance Contractor Network registered; boiler and air handler experience,Verified_Website
John Sadler Plumbing & Heating,+1-604-531-4355,johnsadler.ca,info@johnsadler.ca,Surrey,BC,"Surrey, South Surrey, White Rock, Langley, North Delta, Cloverdale, Fleetwood","Carrier, Trane, Lennox, Daikin, Goodman, Rheem","Heat Pumps, Hydronics",https://maps.google.com/?q=John+Sadler+Plumbing+Heating+3739+155+St+Surrey+BC,Family owned since 1976; multi-brand installer; plumbing + heating combined; strata and residential,Verified_Website
Nation Furnace Heating & Air Conditioning HVAC Ltd.,+1-604-299-5006,nationheating.ca,info@nationheating.ca,Burnaby,BC,"Surrey, Burnaby, Vancouver, Coquitlam, New Westminster, Langley",,"Heat Pumps, Gas Backup, Hydronics",https://maps.google.com/?q=Nation+Furnace+Heating+8028+128+St+Surrey+BC,Serving Metro Vancouver since 2003; residential and commercial; boiler + furnace + heat pump + gas fireplace + air duct services; Mon-Sun 8AM-8PM,Verified_Website
Accolade Heating & Air Conditioning,+1-778-689-7287,accoladeheating.com,james@accoladeheating.com,Surrey,BC,"Surrey, South Surrey, Newton, Guildford, Fleetwood, Cloverdale, Clayton","Rheem, Navien, Rinnai","Heat Pumps, Hydronics",https://maps.google.com/?q=Accolade+Heating+8820+134B+St+Surrey+BC,Red Seal certified; TECA Quality First certified; 15+ years experience; South Surrey coastal heat pump specialist; strata and coach house expertise; 24/7 emergency,Verified_Website
Veteran HVAC,+1-604-991-4894,veteranhvac.ca,info@veteranhvac.ca,Surrey,BC,"Surrey, Vancouver, Burnaby, Lower Mainland",,"Heat Pumps, Gas Backup, Hydronics",https://maps.google.com/?q=Veteran+HVAC+Surrey+BC,BC Hydro and FortisBC registered; CleanBC rebate assistance; boiler + tankless water heater + gas fitting; veteran-owned; no physical address confirmed — verify independently,Verified_Website
Greenway Mechanical,+1-604-359-8700,greenwaymechanical.com,,Port Coquitlam,BC,"Surrey, Vancouver, Port Coquitlam, Lower Mainland",,"Heat Pumps, Air-to-Water",https://maps.google.com/?q=Greenway+Mechanical+619+Swanson+Pl+Port+Coquitlam+BC,20+ years experience; geothermal/ground-source heat pump installation confirmed; residential + commercial + industrial; 10% discount for military/first responders/teachers; 24/7,Verified_Website
Pro Ace Heating and Air Conditioning,+1-604-293-3770,acecare.ca,,Burnaby,BC,"Surrey, Burnaby, Vancouver, Lower Mainland",,"Heat Pumps, Gas Backup",https://maps.google.com/?q=Pro+Ace+Heating+3993+Henning+Dr+Burnaby+BC,In business since 1995; Class A/B gas fitters; licensed refrigerant handling; covers all Surrey town centres; 24/7; EV charger installation also offered,Verified_Website
Primo Heat,+1-778-883-8447,primoheat.ca,info@primoheat.ca,Abbotsford,BC,"Surrey, Abbotsford, Langley, Fraser Valley",Lennox,"Heat Pumps, Gas Backup",https://maps.google.com/?q=Primo+Heat+31334+Peardonville+Rd+Abbotsford+BC,Lennox Quality Dealer 10+ years; FortisBC Trade Ally since 2014; BBB Accredited; BCIT-trained staff; TECA member; Surrey mailing address only — headquartered in Abbotsford,Verified_Website
Reliance Home Comfort,+1-888-837-1451,reliancehomecomfort.com,,Surrey,BC,"Surrey, Metro Vancouver, BC-wide",,"Heat Pumps, Gas Backup",https://maps.google.com/?q=Reliance+Home+Comfort+8116+130+St+Surrey+BC,Large national company; 24/7 call support; rental and purchase programs available; whole-home and mini-split heat pumps; residential focus,Verified_Website
CP Heating (Canadian Pacific Heating & Cooling),+1-604-256-7797,cpheating.ca,info@cpheating.ca,Burnaby,BC,"Burnaby, Vancouver, Delta, Langley, White Rock, Abbotsford",,"Heat Pumps, Gas Backup",https://maps.google.com/?q=CP+Heating+7220+Edmonds+St+Burnaby+BC,15+ years in Burnaby; same-day appointments; 24/7 emergency; licensed and insured; CleanBC rebate assistance confirmed,Verified_Website
Joyce Heating Services Ltd.,+1-604-434-7747,joyceheating.com,,Burnaby,BC,"Burnaby, Vancouver, North Vancouver, West Vancouver, Maple Ridge","Lennox, American Standard, Goodman","Heat Pumps, Gas Backup",https://maps.google.com/?q=Joyce+Heating+Services+4653+Burke+St+Burnaby+BC,Family owned since 1960; Lennox + American Standard + Goodman dealer; free estimates; West Vancouver to Maple Ridge coverage,Verified_Website
Angels Heating Cooling & Plumbing,+1-604-969-7770,angelsheating.com,info@angelsheating.com,Burnaby,BC,"Burnaby, Vancouver, Richmond, Lower Mainland",,"Heat Pumps, Gas Backup, Hydronics",https://maps.google.com/?q=Angels+Heating+3191+Thunderbird+Crescent+Burnaby+BC,BBB Accredited since 2019; in business since 2000; plumbing also offered; residential focus; boiler + heat pump + furnace + tankless,Verified_Website
Western Pacific HVAC,+1-604-416-2611,westernpacifichvac.com,,Vancouver,BC,"Burnaby, Vancouver, North Vancouver, Lower Mainland",,"Heat Pumps, Gas Backup",https://maps.google.com/?q=Western+Pacific+HVAC+999+West+Broadway+Vancouver+BC,TECA member; founded 2020; 24/7 emergency; 1-hour response time; registered with North Vancouver Chamber; CAUTION: building address shared with other firms at 999 W Broadway — verify independently,Verified_Website
Harbour Energy,+1-604-272-7272,harbourenergy.ca,,Richmond,BC,"Burnaby, Vancouver, Richmond, Coquitlam, Delta, Langley, Surrey, New Westminster, Maple Ridge, Port Moody, White Rock",,"Heat Pumps, Gas Backup, Hydronics",https://maps.google.com/?q=Harbour+Energy+Richmond+BC,Since 2008; 2-year warranty on parts and labour; residential + commercial + industrial; pool heater installation; gas fitting; plumbing combined,Verified_Website
Onsite Heating and Cooling Ltd.,+1-604-554-4444,onsiteheatingandcooling.com,,Coquitlam,BC,"Burnaby, Coquitlam, Vancouver, North Vancouver, Langley, Chilliwack, Lower Mainland",,"Heat Pumps, Gas Backup",https://maps.google.com/?q=Onsite+Heating+Cooling+1061+Ridgeway+Ave+Coquitlam+BC,4.8/5 rating 200+ reviews; 24/7 emergency; duct cleaning; furnace + heat pump + AC; free quotes,Verified_Website
Lower Mainland Refrigeration Systems Ltd.,+1-778-693-2532,refrigerationsystemsltd.com,,Richmond,BC,"Richmond, Vancouver, Burnaby, Delta, Lower Mainland",Lennox,"Heat Pumps, Gas Backup",https://maps.google.com/?q=Lower+Mainland+Refrigeration+Systems+5180+McColl+Crescent+Richmond+BC,Founded Richmond 1998; Lennox Premier Dealer; Lennox Powered by Samsung mini-split specialist; Bryant dealer also confirmed; residential and commercial,Verified_Website
Pioneer Plumbing Heating & Cooling,+1-604-282-3251,pioneerplumbing.com,,Richmond,BC,"Richmond, Vancouver, Burnaby, Surrey, Lower Mainland",,"Heat Pumps, Hydronics",https://maps.google.com/?q=Pioneer+Plumbing+Heating+10880+No+5+Rd+Richmond+BC,Since 1976; BBB Accredited A+; 350+ five-star Google reviews; plumbing + heating + heat pumps + drain; 24/7 emergency; Richmond dedicated office at 10880 No. 5 Rd,Verified_Website
Maple Furnace Heating & Air Conditioning,+1-604-324-4328,maplefurnace.com,service@maplefurnace.com,Vancouver,BC,"Richmond, Vancouver, Coquitlam, Burnaby, Lower Mainland","Fujitsu, Mitsubishi, Daikin","Heat Pumps, Gas Backup",https://maps.google.com/?q=Maple+Furnace+Heating+Air+Conditioning+Vancouver+BC,25+ years experience; Fujitsu + Mitsubishi + Daikin mini-split specialist; residential and commercial; HVAC + water heating + gas fireplace; no physical address confirmed — contact by phone,Verified_Website
Vanco Heating Cooling & Duct Cleaning,+1-778-385-6844,vancoheating.ca,,Vancouver,BC,"Richmond, Vancouver, Surrey, Port Coquitlam, Lower Mainland",,"Heat Pumps, Gas Backup",https://maps.google.com/?q=Vanco+Heating+Cooling+Vancouver+BC,Duct cleaning specialist; furnace + heat pump + AC + boiler; Sea Island and Brighouse Richmond coverage confirmed on website; no physical address confirmed — verify independently,Verified_Website
Jetson Home,+1-888-996-5876,jetsonhome.com,,North Vancouver,BC,"Richmond, Vancouver, North Vancouver, Lower Mainland, BC-wide",Carrier (likely — Energy Star Cold Climate certified),Heat Pumps,https://maps.google.com/?q=Jetson+Home+197+Forester+St+North+Vancouver+BC,VC-backed startup (US$50M raised 2024); single-day installation model; instant online quotes; all-in pricing 30-50% below traditional installs; handles rebate paperwork; EV charger + heat pump water heater also available,Verified_Website
M&T Air Conditioning Ltd.,+1-604-531-1934,mandtac.com,,Surrey,BC,"Richmond, Vancouver, Surrey, Lower Mainland",(Commercial — multi-brand),"Heat Pumps, VRF",https://maps.google.com/?q=M+T+Air+Conditioning+Surrey+BC,Commercial and industrial focus since 1978; BBB Accredited; serves Richmond Steveston + Sea Island (YVR) logistics facilities; refrigeration + HVAC + VRF; 24/7 emergency; permit-ready documentation,Verified_Website
Best Way Heating Inc.,+1-604-474-3355,bestwayheating.ca,info@bestwayheating.ca,Coquitlam,BC,"Coquitlam, Port Coquitlam, Port Moody, Pitt Meadows, Maple Ridge, Burnaby, New Westminster","Daikin, American Standard","Heat Pumps, Gas Backup",https://maps.google.com/?q=Best+Way+Heating+1556+Tanglewood+Lane+Coquitlam+BC,Coquitlam-based; Daikin ductless + multi-split up to 5 zones; 24/7 service; 1-year installation warranty; heat pump from $4900+tax; mini-split + multi-split specialist,Verified_Website
Westmount Heating,+1-604-968-6356,westmountheating.com,info@westmountheating.com,Port Coquitlam,BC,"Port Coquitlam, Coquitlam, Port Moody, Lower Mainland",,"Heat Pumps, Gas Backup, Hydronics",https://maps.google.com/?q=Westmount+Heating+585+Seaborne+Ave+Port+Coquitlam+BC,Award-winning family-run business since 2002; Registered Heat Pump Contractor; boiler + furnace + heat pump + AC + tankless; licensed and bonded,Verified_Website
Rocky Point Heating and Air Conditioning,+1-778-994-4724,rockypointhvac.com,,Coquitlam,BC,"Port Moody, Coquitlam, Port Coquitlam, Burnaby, New Westminster, Surrey",,"Heat Pumps, Gas Backup",https://maps.google.com/?q=Rocky+Point+HVAC+2555+Passage+Dr+Coquitlam+BC,Residential + commercial HVAC; sheet metal fabrication; permit coordination with Cities of Coquitlam and Port Coquitlam; SMACNA-BC member (commercial arm); local business pricing focus,Verified_Website
Mountain Ridge Heating and Gas,+1-604-808-8311,mountainridgeheating.com,,Maple Ridge,BC,"Port Moody, Coquitlam, Port Coquitlam, Anmore, Pitt Meadows, Maple Ridge, Mission",,"Heat Pumps, Gas Backup",https://maps.google.com/?q=Mountain+Ridge+Heating+Gas+14301+256th+St+Maple+Ridge+BC,Locally owned by two Maple Ridge natives; in-house sheet metal fabrication shop; new builds + retrofits; FortisBC Hybrid Heating Pilot Program contractor; full HVAC scope for new construction,Verified_Website
Aquaflame Heating & Cooling Ltd.,+1-778-999-4422,aquaflame.ca,info@aquaflame.ca,Surrey,BC,"Coquitlam, Surrey, Vancouver, Lower Mainland",,"Heat Pumps, Gas Backup, Hydronics",https://maps.google.com/?q=Aquaflame+Heating+Cooling+17720+57th+Ave+Surrey+BC,BBB Accredited; comprehensive services: heat pump + furnace + boiler + duct cleaning + fireplace; dual fuel systems; Mon-Sat 7:30AM-9PM; 24/7 emergency,Verified_Website
Comfortpro Heat & AC,+1-778-636-6001,comfortprohvac.ca,info@comfortprohvac.ca,Surrey,BC,"Coquitlam, Surrey, Lower Mainland, Fraser Valley",,"Heat Pumps, Hydronics",https://maps.google.com/?q=Comfortpro+Heat+AC+5896+183A+St+Surrey+BC,10+ years experience; water source heat pump (WSHP) capability; residential + commercial; free quotes; 24/7 emergency; Surrey HQ serving Coquitlam,Verified_Website
Gandy Installations,+1-604-534-5555,gandyinstallations.net,,Langley,BC,"Langley, Surrey, Vancouver, Horseshoe Bay to Hope corridor","Lennox, Carrier, Trane, Buderus, Navien, Rheem","Heat Pumps, Gas Backup, Hydronics",https://maps.google.com/?q=Gandy+Installations+20363+62+Ave+Langley+BC,Family business 65+ years; Lennox Premier Dealer; Carrier dealer; plumbing + electrical + HVAC combined; free estimates; 24/7 emergency; boiler + furnace + heat pump + AC,Verified_Website
Airco Heating & Cooling Ltd.,+1-604-882-9224,aircoheating.ca,service@aircoheating.ca,Langley,BC,"Langley, Surrey, Delta, White Rock, Abbotsford, Lower Mainland","Fujitsu, Daikin","Heat Pumps, Gas Backup",https://maps.google.com/?q=Airco+Heating+Cooling+20157+71A+Ave+Langley+BC,Since 1970; BBB Accredited; Fujitsu Elite Dealer + Daikin dealer; Langley Chamber of Commerce member; ductless mini-split specialist; serves City and Township,Verified_Website
Valley Pacific Mechanical,+1-236-591-5150,valleypacific.ca,info@valleypacific.ca,Langley,BC,"Langley, Fort Langley, Lower Mainland, Fraser Valley",,"Heat Pumps, Gas Backup",https://maps.google.com/?q=Valley+Pacific+Mechanical+19889+96+Ave+Langley+BC,Founded 2021; Red Seal project managers; new construction + renovation + commercial; MNBC Business Directory listed (Indigenous supply chain); dual fuel rebate up to $10000; 24/7 emergency,Verified_Website
Budget Heating & Plumbing,+1-604-343-1985,budgetheating.ca,info@budgetheating.ca,Langley,BC,"Langley City, Township of Langley, Lower Mainland, Fraser Valley",,"Heat Pumps, Gas Backup, Hydronics",https://maps.google.com/?q=Budget+Heating+Plumbing+Langley+BC,BBB A+ rated; plumbing + HVAC + electrical combined; new boiler and heat pump installs; 24/7 emergency; BC Building Code compliant; licensed in electrical and gas,Verified_Website
Pacific Blue Mechanical,+1-604-652-9468,pacificbluemechanical.ca,,Vancouver,BC,"Langley, Surrey, Vancouver, Lower Mainland",,"Heat Pumps, Hydronics",https://maps.google.com/?q=Pacific+Blue+Mechanical+475+W+Georgia+St+Vancouver+BC,Since 2009; fixed-price repairs; free estimates; 100% satisfaction guarantee; 24/7; plumbing + HVAC combined; CAUTION: registered address is a commercial suite in downtown Vancouver — verify independently,Verified_Website
Alfa Services,+1-778-899-9989,alfaservices.ca,,Burnaby,BC,"Langley, Burnaby, Vancouver, Lower Mainland",,"Heat Pumps, Gas Backup",https://maps.google.com/?q=Alfa+Services+7228+Winston+St+Burnaby+BC,Fully licensed insured bonded; multi-million liability coverage; electrical + gas + HVAC combined; EV charger installation also offered; boiler + furnace + heat pump + water filtration; Langley Township service confirmed,Verified_Website
Heritage Mountain Heating & Cooling,+1-604-968-0029,heritagemountainhc.ca,,Maple Ridge,BC,"Maple Ridge, Pitt Meadows, Coquitlam, Tri-Cities, Lower Mainland",Daikin,"Heat Pumps, Gas Backup, Hydronics",https://maps.google.com/?q=Heritage+Mountain+Heating+Cooling+13210+Shoesmith+Crescent+Maple+Ridge+BC,Family-run Red Seal team since 2010; 600+ 5-star Google reviews; Platinum Community Votes 2023-2025; Master Group dealer (Daikin); ductless + radiant heating; highest-rated HVAC in Maple Ridge,Verified_Website
Big Valley Heating & Sheet Metal Ltd.,+1-604-467-6474,bigvalleyheating.ca,sales@bigvalleyheating.ca,Maple Ridge,BC,"Maple Ridge, Pitt Meadows, Port Moody, Mission, Lower Mainland",,"Heat Pumps, Gas Backup, Hydronics",https://maps.google.com/?q=Big+Valley+Heating+Sheet+Metal+11868+216+St+Maple+Ridge+BC,Family founded 1986; BBB Accredited; custom sheet metal fabrication in-house; Port Moody to Mission coverage; gas + heat pump + AC + water heaters; ICC RSF dealer (wood pellet systems),Verified_Website
Coleman Heating and Air Conditioning,+1-604-466-5895,colemanheating.ca,,Maple Ridge,BC,"Maple Ridge, Pitt Meadows, Coquitlam, Tri-Cities, Langley, Surrey, Burnaby, Vancouver, Richmond, White Rock",,"Heat Pumps, Gas Backup",https://maps.google.com/?q=Coleman+Heating+11360+241A+St+Maple+Ridge+BC,In business since 1998; $10000 FortisBC Dual Fuel rebate offered; furnace + heat pump + AC + tankless water heaters; 24/7 emergency; serves entire Lower Mainland,Verified_Website
Ryan Heating & Air Conditioning,+1-778-228-5330,heatingbyryan.ca,,Maple Ridge,BC,"Maple Ridge, Pitt Meadows, Mission, Lower Mainland",,"Heat Pumps, Gas Backup",https://maps.google.com/?q=Ryan+Heating+Air+Conditioning+21433+Cherry+Pl+Maple+Ridge+BC,BBB A+ rating; locally owned 10+ years; Ridge Meadows Chamber member; furnace + heat pump + boiler + AC + gas fireplace; Sat hours available,Verified_Website
Hammer's Heating and Cooling,+1-778-899-5224,hammersheating.ca,,Pitt Meadows,BC,"Pitt Meadows, Maple Ridge, Langley, Abbotsford, Mission, Port Moody, Surrey, Coquitlam, New Westminster",,"Heat Pumps, Gas Backup",https://maps.google.com/?q=Hammers+Heating+Cooling+Pitt+Meadows+BC,TSBC Licensed #LGA0202581; established 2013; furnace + AC + heat pump + HRV + hot water; Mon-Fri 7:30AM-5PM; gas line installation,Verified_Website
Meadow Ridge Custom Heating,+1-604-463-0652,meadowridgecustomheating.com,info@meadowridgecustomheating.com,Maple Ridge,BC,"Maple Ridge, Pitt Meadows, Mission, Lower Mainland",,"Heat Pumps, Gas Backup, Hydronics",https://maps.google.com/?q=Meadow+Ridge+Custom+Heating+27242+Dewdney+Trunk+Rd+Maple+Ridge+BC,BBB Accredited; since 1986; owner-operated by Kerry Kaplanchuk; Bradford White water heater dealer; custom heating solutions; Mon-Sat hours,Verified_Website
Nova Heating & Sheet Metal Ltd.,+1-604-988-3922,novaheating.ca,,North Vancouver,BC,"North Vancouver, West Vancouver, Burnaby, Coquitlam","Samsung, Armstrong Air, American Standard, Fujitsu, Daikin, Mitsubishi","Heat Pumps, Gas Backup",https://maps.google.com/?q=Nova+Heating+Sheet+Metal+663+3rd+St+W+North+Vancouver+BC,Family-owned since 1945; BBB A+ rated; 70+ years on the North Shore; custom sheet metal; ductless mini-split specialist; Sat hours available; manufacturer-trained,Verified_Website
R&B Plumbing & Heating Ltd.,+1-604-337-2369,randbplumbing.ca,,North Vancouver,BC,"North Vancouver, West Vancouver, Vancouver, Burnaby",Carrier,"Heat Pumps, Hydronics",https://maps.google.com/?q=R+B+Plumbing+Heating+1075+W+1st+St+North+Vancouver+BC,Since 1990; Carrier Authorized Dealer; Carrier Indoor Air Quality Expert; FortisBC Trade Ally; Home Performance Contractor Network; TSBC #LGA0003173; plumbing + HVAC + gas fitting combined,Verified_Website
Paris Service Group,+1-778-803-1582,parisservicegroup.com,hello@parisservicegroup.com,North Vancouver,BC,"North Vancouver, West Vancouver, Vancouver, Lower Mainland",,"Heat Pumps, Gas Backup, Hydronics",https://maps.google.com/?q=Paris+Service+Group+390+Harbour+Ave+North+Vancouver+BC,Subsidiary of Paris Mechanical; North Vancouver Chamber member; plumbing + HVAC + heat pump installation; 24/7 live answering; Mon-Fri 8AM-4:30PM; residential focus,Verified_Website
Whyte Mechanical,+1-778-628-4826,whytemechanical.ca,,Burnaby,BC,"North Vancouver, Vancouver, Burnaby, West Vancouver, Lower Mainland",,"Heat Pumps, Gas Backup, Hydronics",https://maps.google.com/?q=Whyte+Mechanical+1625+Ingleton+Ave+Burnaby+BC,Founded 2018 by Conor Whyte; 30+ years combined experience; North Shore residential specialist; licensed gas fitters; heat pump + plumbing + furnace + AC; premium craftsmanship focus,Verified_Website
Lambert Plumbing & Heating Ltd.,+1-604-734-0890,lambertplumbing.ca,info@lambertplumbing.ca,Burnaby,BC,"North Vancouver, West Vancouver, Vancouver, Burnaby, New Westminster, Coquitlam, Richmond, Surrey",,"Heat Pumps, Gas Backup, Hydronics",https://maps.google.com/?q=Lambert+Plumbing+Heating+6741+Cariboo+Rd+Burnaby+BC,Originally Bob Lambert Heating since 1977; family-owned; 24/7 emergency; full plumbing + heating + cooling + drain cleaning; boiler + heat pump + forced air; rebate guidance offered,Verified_Website
Acorn Service Group,+1-604-948-9949,acornheat.com,info@acornheat.com,Delta,BC,"Delta, Ladner, Tsawwassen, North Delta, Surrey, Richmond, White Rock",,"Heat Pumps, Gas Backup, Hydronics",https://maps.google.com/?q=Acorn+Service+Group+5646+12th+Ave+Delta+BC,Since 1999; BBB Accredited; Ladner and Tsawwassen specialist; boiler + ductless heat pump + tankless + combi boiler + gas fireplace; rebates up to $5000; 24/7; Delta Delta Chamber member,Verified_Website
Neighbourhood Plumbing & Heating,+1-604-946-7778,neighbourhoodplumber.com,info@neighbourhoodplumber.com,Delta,BC,"Delta, Ladner, Tsawwassen, South Delta",,"Heat Pumps, Gas Backup, Hydronics",https://maps.google.com/?q=Neighbourhood+Plumbing+Heating+4814+42B+Ave+Delta+BC,BBB A+; twice voted Best Plumbing & Heating in Delta Optimist People's Choice Awards; Red Seal certified owner Kirby Reid; family-owned since 2013; Delta Chamber + Ladner Business Association member; South Delta community focus,Verified_Website
PJB Mechanical,+1-604-940-2268,pjbmechanical.com,,Delta,BC,"Delta, Richmond, Surrey, Vancouver, New Westminster, Lower Mainland",,"Heat Pumps, Gas Backup, Hydronics",https://maps.google.com/?q=PJB+Mechanical+7402+Progress+Way+Delta+BC,Since 1996; BBB Accredited; full-service plumbing + heating + cooling + gas + electrical + drainage; residential + commercial; sustainable/green plumbing focus; licensed technicians,Verified_Website
Sierra Mechanical Limited,+1-604-943-1234,sierramechanical.ca,sales@sierramechanical.ca,Richmond,BC,"Delta, Tsawwassen, Ladner, North Delta, Richmond, Vancouver, New Westminster, South Surrey, White Rock",,"Heat Pumps, Gas Backup",https://maps.google.com/?q=Sierra+Mechanical+5133+Jaskow+Dr+Richmond+BC,Locally owned since 1998; TSBC Licence #LGA0005684; plumbing + heating + AC + gas fitting + backflow testing; Mon-Sat 7:30AM-8:30PM; Delta + Richmond primary coverage,Verified_Website
Fairy Stone Heating and Air Conditioning Inc.,,fairystone.ca,,New Westminster,BC,"New Westminster, Vancouver, North Vancouver, Burnaby, Lower Mainland",,"Heat Pumps, Gas Backup, Hydronics",https://maps.google.com/?q=Fairy+Stone+Heating+506+Seventh+Ave+New+Westminster+BC,BBB listed; family-run business based in New Westminster since 2023; licensed bonded insured; heat pump + ductless AC + furnace + boiler + hot water; CAUTION: phone not publicly listed — contact via website,Unverified
Eaton's Heating & Air Conditioning,+1-604-771-2024,eatonshomecare.com,info@eatonshomecare.com,Coquitlam,BC,"New Westminster, Coquitlam, Vancouver, Burnaby, Richmond, North Vancouver, West Vancouver, Surrey, Langley, Delta, Port Moody, Maple Ridge, Port Coquitlam",,"Heat Pumps, Gas Backup, Hydronics",https://maps.google.com/?q=Eatons+Heating+17+Fawcett+Rd+Coquitlam+BC,20+ years experience; BCIT-trained technicians; FortisBC Trade Ally; CleanBC Better Homes partner; BBB Accredited; Bradford White dealer; same-day emergency; New Westminster dedicated service page,Verified_Website
Milani Plumbing Heating & Air Conditioning,+1-604-430-2603,milani.ca,,Burnaby,BC,"New Westminster, Burnaby, Vancouver, North Vancouver, Richmond, Delta, Lower Mainland",Daikin,"Heat Pumps, Gas Backup, Hydronics",https://maps.google.com/?q=Milani+Plumbing+Heating+5526+Kingsway+Burnaby+BC,Since 1956; largest full-service plumbing + HVAC company in Greater Vancouver; 100+ vehicle fleet; BBB Accredited; Master Group Daikin dealer; 24/7 emergency; residential + commercial + strata,Verified_Website
Thomson Industries,+1-604-335-2019,thomsonindustries.ca,,Surrey,BC,"New Westminster, Surrey, Vancouver, Port Coquitlam, West Vancouver, Mission, Lower Mainland",,"Heat Pumps, Gas Backup",https://maps.google.com/?q=Thomson+Industries+9670+188+St+Surrey+BC,Since 1996; 4.7/5 Google rating; 24/7 365 days no extra charge; up to $6000 rebates offered; furnace + heat pump + AC + ductless + duct cleaning + plumbing + electrical; two locations Surrey + Port Coquitlam,Verified_Website
Coastal Heat Pumps,+1-250-656-6868,coastalheatpumps.com,,Victoria,BC,"Victoria, Sidney, Saanich, Langford, Colwood, Ladysmith, Gulf Islands","Samsung, Fujitsu, Carrier",Heat Pumps,https://maps.google.com/?q=Coastal+Heat+Pumps+538+Dupplin+Rd+Victoria+BC,BBB Accredited since 2014; Samsung HVAC Preferred Plus Dealer; ductless packages from $4500; rebates up to $11000; Greater Victoria to Ladysmith; 21 years in business; Mon-Fri 8AM-4:30PM,Verified_Website
Accutemp Refrigeration Air Conditioning & Heating Ltd.,+1-250-475-2665,accutemp.ca,,Victoria,BC,"Victoria, Saanich, Langford, Oak Bay, Duncan, South Vancouver Island","Samsung, Mitsubishi, Fujitsu, Daikin, York","Heat Pumps, Gas Backup",https://maps.google.com/?q=Accutemp+3375+Whittier+Ave+Victoria+BC,40+ years serving Greater Victoria to Duncan; Master Group Daikin dealer; residential + commercial; 24/7 emergency; CleanBC rebate paperwork handled; 7 days/week emergency repairs,Verified_Website
South Island Mechanical Ltd.,+1-250-589-8929,southislandmechanical.ca,,Victoria,BC,"Victoria, Langford, Saanich, Sidney, Sooke, Duncan, Ladysmith, Nanaimo, Port Alberni, Courtenay, Campbell River, Gulf Islands",,"Heat Pumps, Air-to-Water",https://maps.google.com/?q=South+Island+Mechanical+888+Attree+Ave+Victoria+BC,20+ years HVAC/R experience; all brands and types including air-to-water hydronic systems; residential + commercial + light industrial + marine; BBB listed; widest Island coverage,Verified_Website
Pacific Heat Pumps,+1-250-655-4348,pacificheatpumps.ca,info@pacificheatpumps.ca,Sidney,BC,"Greater Victoria, Sidney, Gulf Islands, Saanich Peninsula",Carrier,Heat Pumps,https://maps.google.com/?q=Pacific+Heat+Pumps+9843+Second+St+Sidney+BC,Carrier Authorized Dealer; 300+ 5-star reviews; showroom in Sidney; Generac standby generators + Level 2 EV chargers + 200-amp panel upgrades; BBB listed; Victoria Chamber member; free consultations,Verified_Website
West Bay Mechanical Ltd.,+1-250-478-8532,westbaymechanical.com,,Victoria,BC,"Victoria, Langford, Colwood, Esquimalt, View Royal, Duncan, South Vancouver Island",Lennox,"Heat Pumps, Gas Backup, Hydronics",https://maps.google.com/?q=West+Bay+Mechanical+584+Ledsham+Rd+Victoria+BC,35+ years; Lennox Authorized Dealer; plumbing + electrical + mechanical combined; residential + commercial; showroom at 1740 Island Highway; 24/7 emergency; BBB A+,Verified_Website
Dupuis Energy Inc.,+1-250-858-6743,dupuis.energy,info@dupuis.energy,Victoria,BC,"Victoria, Sidney, Sooke, Saanich, Langford, South Vancouver Island",,"Heat Pumps, Gas Backup",https://maps.google.com/?q=Dupuis+Energy+7957+Lochside+Dr+Victoria+BC,Class A Gas Fitter (Technical Safety BC); fully licensed and insured; Sidney to Sooke coverage; heat pump + furnace + ductless AC; 24/7 emergency; BBB listed; owner-operated,Verified_Website
Victoria Furnace Services,+1-778-400-7148,victoriafurnaceservices.com,info@victoriafurnaceservices.com,Victoria,BC,"Victoria, Saanich, Langford, Esquimalt, Capital Regional District",Lennox,"Heat Pumps, Gas Backup",https://maps.google.com/?q=Victoria+Furnace+Services+Victoria+BC,Lennox dealer; heat pump + gas furnace + electric furnace + duct cleaning; CRD coverage; CAUTION: no physical address confirmed in public listings — verify independently,Verified_Website
Sasquatch Heat Pumps Ltd.,+1-236-361-8293,sasquatchheatpumps.com,,Sooke,BC,"Sooke, Victoria, Langford, Colwood, View Royal, Western Communities, South Vancouver Island",Carrier,Heat Pumps,https://maps.google.com/?q=Sasquatch+Heat+Pumps+6625+Sooke+Rd+Sooke+BC,Carrier Authorized Dealer; BBB Accredited; BC Green Business certified; plants 50 trees per HVAC install; ducted + ductless + residential electrical; flat-rate pricing; 24/7,Verified_Website
ServiceXCEL Heating & Cooling,+1-250-760-0898,servicexcel.ca,,Nanaimo,BC,"Nanaimo, Parksville, Qualicum, Ladysmith, Courtenay, Coastal Islands, Central Vancouver Island",Daikin,"Heat Pumps, Gas Backup",https://maps.google.com/?q=ServiceXCEL+3172+Barons+Rd+Nanaimo+BC,BBB A+; 3x BBB Torch Award winner; 500+ 5-star reviews; Daikin ducted + ductless + hybrid; ERV/HRV; CleanBC rebate guidance; Nanaimo Chamber member; Mon-Fri 8AM-5PM,Verified_Website
Bryans Mechanical Ltd.,+1-250-758-0738,bryansmechanical.com,bryansmechanical@gmail.com,Nanaimo,BC,"Nanaimo, Comox Valley, Central Vancouver Island","Daikin, Bryant, Napoleon, Navien","Heat Pumps, Gas Backup, Hydronics",https://maps.google.com/?q=Bryans+Mechanical+2122+Northfield+Rd+Nanaimo+BC,Family owned since 1993; Daikin Comfort Pro + Bryant Authorized Dealer; ductless + ducted heat pumps; Norlake commercial refrigeration; BBB listed; satisfaction guaranteed,Verified_Website
Lone Wolf HVAC Ltd.,+1-250-739-6030,lonewolfhvac.ca,admin@lonewolfhvac.ca,Ladysmith,BC,"Nanaimo, Ladysmith, Central Vancouver Island",Mitsubishi,Heat Pumps,https://maps.google.com/?q=Lone+Wolf+HVAC+132+High+St+Ladysmith+BC,Red Seal journeyman on every visit; Mitsubishi specialist; detailed heat load calculations before sizing; BBB listed; TECA member; no oversized systems — precise engineering focus,Verified_Website
The Comfort Group,+1-250-756-5554,comfortgroup.ca,,Nanaimo,BC,"Nanaimo, Victoria, Central Vancouver Island",Lennox,"Heat Pumps, Gas Backup",https://maps.google.com/?q=The+Comfort+Group+4385+Boban+Dr+Nanaimo+BC,Lennox dealer; Nanaimo + Victoria locations; residential + light commercial; heat pump + furnace + AC; CleanBC rebate assistance,Verified_Website
Norm's Plumbing Heating & Air Conditioning,,normsmobile.ca,,Nanaimo,BC,"Nanaimo, Parksville, Ladysmith, Central Vancouver Island",Bryant,"Heat Pumps, Gas Backup",https://maps.google.com/?q=Norms+Plumbing+Heating+Nanaimo+BC,52+ years experience; Bryant Factory Authorized Dealer; up to $1500 off qualifying installs; rebate guidance (FortisBC); local family-owned community-driven; CAUTION: phone not confirmed — verify via website,Unverified
Pope and Sons Heating Cooling & Refrigeration,,popeandsons.com,,Nanaimo,BC,"Nanaimo, Central Vancouver Island",Carrier,"Heat Pumps, Gas Backup",https://maps.google.com/?q=Pope+and+Sons+Heating+Nanaimo+BC,40+ years experience; Carrier Factory Authorized Dealer; ductless heat pumps with independent temperature zones; residential + commercial refrigeration; CAUTION: phone not confirmed — verify via website,Unverified
Coastal Energy,+1-250-591-0281,coastalenergy.ca,,Nanaimo,BC,"Nanaimo, Parksville, Courtenay, Campbell River, Central and North Vancouver Island","Fujitsu, Carrier, Hitachi, Moovair","Heat Pumps, Gas Backup",https://maps.google.com/?q=Coastal+Energy+Nanaimo+BC,Multi-brand installer; Fujitsu + Carrier + Hitachi + Moovair; serving Central and North Island; residential + commercial; rebate assistance,Verified_Website
Comfort Tech Heating & Cooling,+1-250-258-5713,https://www.comforttech.ca,,Kelowna,BC,"Kelowna, West Kelowna, Lake Country",Daikin,Heat Pumps,https://www.google.com/maps/search/Comfort+Tech+Heating+Cooling+715+Evans+Court+Kelowna+BC,BBB A+ accredited 10+ years; family-owned; 24/7 emergency service; 715 Evans Court #6 Kelowna BC V1X 6G4,Verified_Website
Blair Mechanical Services Ltd.,+1-250-491-2700,https://www.blairmechanical.com,,Kelowna,BC,"Kelowna, West Kelowna, Peachland",Multiple,Heat Pumps,https://www.google.com/maps/search/Blair+Mechanical+Services+1060+Leathead+Rd+Kelowna+BC,BBB A+; family-owned since 1993; full-service: heat pumps + plumbing + electrical + EV chargers; 24/7 emergency; 1060 Leathead Rd #4 Kelowna BC V1X 2K1,Verified_Website
Vision Plumbing Heating Cooling,+1-778-909-0818,https://www.visionplumbingandheating.com,,Kelowna,BC,"Kelowna, Vernon, Penticton, Okanagan Valley","Multiple, Daikin",Heat Pumps,https://www.google.com/maps/search/Vision+Plumbing+Heating+Cooling+2600+Acland+Rd+Kelowna+BC,TSBC licence #LGA0003114; family-owned since 1986; Okanagan Valley-wide coverage; 2600 Acland Rd #8 Kelowna BC V1X 7J3,Verified_Website
Murray's Heating & Cooling Solutions Ltd.,+1-250-575-8907,https://www.murrayssolutions.com,service@murrayssolutions.com,Kelowna,BC,"Kelowna, West Kelowna, Lake Country",Tempstar,Heat Pumps,https://www.google.com/maps/search/Murrays+Heating+Cooling+3350+Sexsmith+Rd+Kelowna+BC,Carrier subsidiary brand (Tempstar); established 2016; residential focus; 3350 Sexsmith Rd #3 Kelowna BC V1X 7S5,Verified_Website
ACE Plumbing & Heating,+1-250-861-6696,https://www.acekelowna.ca,,Kelowna,BC,"Kelowna, West Kelowna, Lake Country, Vernon",Carrier,"Heat Pumps, VRF",https://www.google.com/maps/search/ACE+Plumbing+Heating+2075+Pier+Mac+Way+Kelowna+BC,Carrier President's Award every year since 2016; 40+ years in business; 90 employees; Kelowna Chamber Large Business of the Year 2021; HPCN member; residential and commercial; 2075 Pier Mac Way Kelowna BC,Verified_Website
Canadian Aerothermal,+1-877-663-6472,https://www.canadianaerothermal.ca,,Penticton,BC,"Kelowna, Penticton, Vernon, Kamloops, Chilliwack, Vancouver, Kootenays, Shuswap","Mitsubishi, Fujitsu, Daikin","Heat Pumps, VRF",https://www.google.com/maps/search/Canadian+Aerothermal+742+Eckhardt+Ave+Penticton+BC,HQ Penticton; listed here due to Okanagan-wide service; since 2006; 5000+ installs; Mitsubishi Elite + Fujitsu + Daikin dealer; province-wide coverage; 742 Eckhardt Ave W Penticton BC V2A 2B7,Verified_Website
Rapid Cool Mechanical,+1-250-374-6858,https://rapidcool.ca,info@rapidcool.ca,Kamloops,BC,"Kamloops, Merritt","Bryant, Carrier",Heat Pumps,https://www.google.com/maps/search/Rapid+Cool+Mechanical+921+Laval+Crescent+Kamloops+BC,BBB A+ accredited; Bryant Factory Authorized Dealer + Carrier Commercial; 24/7 service; plumbing + refrigeration + HVAC; 921B Laval Crescent Kamloops BC V2C 5P4,Verified_Website
KVA Mechanical Ltd.,+1-250-554-0505,https://www.kvamechanical.com,,Kamloops,BC,"Kamloops, Thompson-Nicola Region",Multiple,Heat Pumps,https://www.google.com/maps/search/KVA+Mechanical+1139+12th+Street+Kamloops+BC,"BBB A+; family-owned since 1980; 20 combined tickets: Class A Gas, TECA, Sheet Metal, Electrical; rebates up to $6,000; 1139 12th St Unit 10 Kamloops BC V2B 7Z2",Verified_Website
Full Spectrum Heating and Air-Conditioning Ltd.,+1-250-319-5938,https://fullspectrumheating.ca,info@fullspectrumheating.ca,Kamloops,BC,Kamloops,Carrier,Heat Pumps,https://www.google.com/maps/search/Full+Spectrum+Heating+1450+Pearson+Place+Kamloops+BC,Carrier dealer; HPCN member; FortisBC verified contractor; 20+ years experience; 24/7 emergency; 1450 Pearson Pl #200 Kamloops BC V1S 1J9,Verified_Website
Kamloops Heating and Air Conditioning,+1-250-879-2777,https://kamloopsheatingandairconditioning.com,service@kamloopshvac.com,Kamloops,BC,"Kamloops, Clearwater, Lillooet",Multiple,Heat Pumps,https://www.google.com/maps/search/Kamloops+Heating+Air+Conditioning+805+Notre+Dame+Dr+Kamloops+BC,Since 2008; 4.8 stars 168 reviews; 10-year parts and labor warranty on new installs; 24/7; free estimates; 115-805 Notre Dame Dr Kamloops BC V2C 5N8,Verified_Website
Hadwin's HVAC & Gas Inc.,+1-250-574-9333,https://hadwinshvac.ca,info@hadwinshvac.ca,Kamloops,BC,"Kamloops, Chase, Vernon, Merritt, Ashcroft, Salmon Arm, Sun Peaks, Clearwater, Barriere",Multiple,Heat Pumps,https://www.google.com/maps/search/Hadwins+HVAC+Gas+450+Lorne+Street+Kamloops+BC,BBB accredited; since 2011; serves 20+ BC communities; same-day parts stocked; flat-rate pricing; 24/7 live answering; 450 Lorne St Kamloops BC V2C 1W3,Verified_Website
Halliday Refrigeration Ltd.,+1-250-376-1474,https://www.hallidayrefrigeration.com,,Kamloops,BC,Kamloops,Multiple,Heat Pumps,https://www.google.com/maps/search/Halliday+Refrigeration+2020+Falcon+Road+Kamloops+BC,Family-owned since 1968; BBB accredited; residential and commercial refrigeration specialty; 24/7 emergency; H-2020 Falcon Rd Kamloops BC V2C 4J3,Verified_Website
KDB HVAC Inc.,+1-250-572-0209,https://kdbhvac.ca,info@kdbhvac.ca,Kamloops,BC,Kamloops,Fujitsu,Heat Pumps,https://www.google.com/maps/search/KDB+HVAC+340+12th+Avenue+Kamloops+BC,Fujitsu authorized dealer; Red Seal ticketed tradespeople; Kamloops Chamber member; 100% locally owned; 24/7 emergency; 340B 12 Ave Kamloops BC,Verified_Website
HVAC Strong Mechanical Ltd.,+1-778-999-5815,https://hvacstrong.ca,,Prince George,BC,"Prince George, Northern BC","Mitsubishi, GE, Continental, Tosot",Heat Pumps,https://www.google.com/maps/search/HVAC+Strong+Mechanical+4780+Wood+Place+Prince+George+BC,First HPCN accredited contractor in Northern BC; TSBC licensed; Mitsubishi dealer + sole GE dealer in PG; 5-star 124 reviews; 24/7; listed on Better Homes BC; 4780 Wood Place Prince George BC V2M 6C4,Verified_Website
Heat Tech Heating & Ventilation Ltd.,+1-250-962-0041,https://www.heattechheating.ca,,Prince George,BC,Prince George,Trane,Heat Pumps,https://www.google.com/maps/search/Heat+Tech+Heating+Ventilation+123+Ruggles+Street+Prince+George+BC,BBB A+; family-owned since 1998; Trane authorized dealer; 24/7/365 emergency; 123 Ruggles St Prince George BC,Verified_Website
Canuck Mechanical Ltd.,+1-250-564-4567,https://www.canuckmechanical.com,,Prince George,BC,"Prince George, Central Interior BC","Amana, Goodman, Viessmann","Heat Pumps, Hydronics",https://www.google.com/maps/search/Canuck+Mechanical+1797+Lyon+Street+South+Prince+George+BC,BBB accredited; since 1983; 40+ years; Viessmann boiler dealer; largest stocked trucks in town; 100+ years combined technician experience; 24/7 emergency; 100-1797 Lyon St S Prince George BC V2N 1T3,Verified_Website
Polar Refrigeration Sales & Service Ltd.,+1-250-563-6444,https://www.polarrefrig.ca,polarrefrig@telus.net,Prince George,BC,"Prince George, North Central Interior BC",Lennox,Heat Pumps,https://www.google.com/maps/search/Polar+Refrigeration+910+3rd+Avenue+Prince+George+BC,Lennox Premier Dealer; Lennox 20 Years of Service Award; 50+ years in business; residential and commercial; Prince George Chamber + Homebuilders Association member; 24/7 emergency; 910 3rd Ave Prince George BC V2L 3C9,Verified_Website
Mainline Plumbing & Heating Ltd.,+1-250-564-9808,https://mainlineplumbingandheating.com,vmarsh@mainlineltd.ca,Prince George,BC,"Prince George, Central Interior BC",Multiple,"Heat Pumps, Hydronics",https://www.google.com/maps/search/Mainline+Plumbing+Heating+3658+Opie+Crescent+Prince+George+BC,50+ years in business; BBB accredited; boiler + heat pump + plumbing specialty; 24/7 emergency; Northern BC Homebuilders Association member; 3658 Opie Crescent Prince George BC V2N 1C1,Verified_Website
Budget Choice Heating & Cooling,+1-250-617-9510,https://www.budgetchoiceheating.ca,,Prince George,BC,"Prince George, Williams Lake","YORK, KeepRite, Continental",Heat Pumps,https://www.google.com/maps/search/Budget+Choice+Heating+Cooling+Prince+George+BC,BBB A+; City of Prince George business directory listed; since 2013; 24/7; serves Prince George and Williams Lake; CAUTION: no physical street address confirmed in public records,Unverified
Prince George Plumbing & Heating Ltd.,+1-250-614-3767,https://pgplumbingandheating.ca,,Prince George,BC,Prince George,Multiple,Heat Pumps,https://www.google.com/maps/search/PG+Plumbing+Heating+6716+Edelweiss+Road+Prince+George+BC,Residential and commercial; 24/7 emergency; 6716 Edelweiss Rd Prince George BC V2K 3G4,Verified_Website
Complete Heating & Air Conditioning,+1-604-859-1501,https://completeheating.ca,,Abbotsford,BC,"Abbotsford, Chilliwack, Mission, Langley","Bryant, Lennox, Carrier",Heat Pumps,https://www.google.com/maps/search/Complete+Heating+Air+Conditioning+2350+Anora+Drive+Abbotsford+BC,BBB A+; multi-brand: Bryant + Lennox + Carrier; warranty repairs all major brands; annual maintenance programs; 2350 Anora Dr Abbotsford BC V2S 5P8,Verified_Website
AirVantage Heating & Cooling,+1-604-200-0178,https://callairvantage.ca,,Abbotsford,BC,"Abbotsford, Mission, Chilliwack, Langley, Maple Ridge",Multiple,Heat Pumps,https://www.google.com/maps/search/AirVantage+Heating+Cooling+3095+McCallum+Road+Abbotsford+BC,BBB A+; family-owned since 1962; 2000+ Google reviews; 24/7 emergency; 100% satisfaction guarantee; upfront pricing; 6A-3095 McCallum Rd Abbotsford BC V2S 7W4,Verified_Website
Wagner Heating & Air Ltd.,+1-604-855-9516,https://wagnerheating.com,,Abbotsford,BC,"Abbotsford, Aldergrove, Mission, Chilliwack, Langley",Trane,Heat Pumps,https://www.google.com/maps/search/Wagner+Heating+Air+37459+Kilgard+Road+Abbotsford+BC,BC's ONLY Trane Comfort Specialist Prime Dealer; BBB accredited; family-owned; Trane extended parts and labour warranties; 24/7 emergency; 110-37459 Kilgard Rd Abbotsford BC V3G 2H6,Verified_Website
Luxury Climate,+1-604-991-4328,https://www.luxuryclimate.ca,,Agassiz,BC,"Abbotsford, Chilliwack, Mission, Hope, Fraser Valley","Fujitsu, Mitsubishi, Daikin, American Standard","Heat Pumps, Air-to-Water",https://www.google.com/maps/search/Luxury+Climate+1609+Agassiz+Rosedale+Highway+Agassiz+BC,HQ Agassiz; Fujitsu Elite Dealer (12-year extended warranty); air-to-water cold climate heat pumps; Red Seal certified technicians; 20 years HVAC/R experience; 3-1609 Agassiz-Rosedale Hwy No 9 Agassiz BC,Verified_Website
Rep-Air Heating & Cooling,+1-778-728-1476,https://www.repairheatingandcooling.com,contact@repairheatingandcooling.com,Mission,BC,"Mission, Abbotsford, Maple Ridge, Surrey",Multiple,Heat Pumps,https://www.google.com/maps/search/Rep-Air+Heating+Cooling+32929+Mission+Way+Mission+BC,HQ Mission; family-owned since 2017; Mission Chamber of Commerce member; licensed bonded insured; free consultations; 32929 Mission Way #4 Mission BC V2V 6E4,Verified_Website
John Mulder Heating & Air Conditioning Ltd.,+1-604-792-1767,https://www.johnmulderheating.ca,info@johnmulderheating.ca,Chilliwack,BC,"Chilliwack, Abbotsford, Agassiz, Hope",Lennox,Heat Pumps,https://www.google.com/maps/search/John+Mulder+Heating+46064+Airport+Road+Chilliwack+BC,Lennox Premier Dealer; serving Fraser Valley since 1984; full-service: heat pumps + boilers + furnaces + gas fitting; commercial and residential; weekend emergency on-call; 46064 Airport Rd Chilliwack BC V2P 1A5,Verified_Website
Chilliwack Heating Ltd. & JC Fireplaces and Spas,+1-604-426-0189,https://www.chilliwackheating.ca,,Chilliwack,BC,"Chilliwack, Abbotsford, Langley, Hope, Agassiz",Multiple,Heat Pumps,https://www.google.com/maps/search/Chilliwack+Heating+8915+Young+Road+Chilliwack+BC,BBB accredited; since 1992; WETT-certified technicians; showroom (largest fireplace selection in Chilliwack); Chilliwack Chamber member; 24/7 same-day emergency; 8915 Young Rd Chilliwack BC V2P 4P7,Verified_Website
Neels Heating & Supplies Ltd.,+1-604-792-1951,https://www.neelsheating.com,,Chilliwack,BC,"Chilliwack, Fraser Valley",Multiple,Heat Pumps,https://www.google.com/maps/search/Neels+Heating+Supplies+8465+Harvard+Place+Chilliwack+BC,Incorporated 1974; 50+ years serving Fraser Valley; licensed and apprentice HVAC technicians; Chilliwack Chamber member; 19-8465 Harvard Place Chilliwack BC V2P 7Z5,Verified_Website
High Standard Heating & Cooling Corporation,+1-604-799-5377,https://highstandardhvac.ca,office@highstandardhvac.ca,Chilliwack,BC,"Chilliwack, Mission, Agassiz, Hope, Harrison Hot Springs",Multiple,Heat Pumps,https://www.google.com/maps/search/High+Standard+HVAC+45831+Hocking+Avenue+Chilliwack+BC,BBB accredited; Chilliwack Chamber member; residential and commercial; 24/7 emergency; gas installation and piping; 201-45831 Hocking Ave Chilliwack BC V2P 1B5,Verified_Website
Chill-Air Conditioning (2014) Ltd.,+1-604-792-6783,https://www.chill-air.com,,Chilliwack,BC,"Chilliwack, Abbotsford, Fraser Valley",Multiple,Heat Pumps,https://www.google.com/maps/search/Chill+Air+Conditioning+44125+Yale+Road+Chilliwack+BC,Since 1989; commercial and residential refrigeration specialty; 100+ years combined experience; Chilliwack Chamber member; 24/7 on-call technicians; 44125 Yale Rd W Chilliwack BC V2R 3Z9,Verified_Website
RPR Heating & Air Conditioning,+1-250-492-3677,https://www.rprheating.com,,Penticton,BC,"Penticton, South Okanagan, Similkameen",Daikin,Heat Pumps,https://www.google.com/maps/search/RPR+Heating+Air+Conditioning+154+Ellis+Street+Penticton+BC,HPCN member; since 1979; TSBC licence LGA0205242; Daikin Master Group dealer; geothermal capability; ductless + ducted + fan coils + sheet metal; commercial and residential; 154 Ellis St Penticton BC V2A 4L5,Verified_Website
All Valley Heat Pumps & AC,+1-250-493-4822,https://www.allvalleyheatpumps.com,,Penticton,BC,"Penticton, Summerland, Osoyoos",Daikin,Heat Pumps,https://www.google.com/maps/search/All+Valley+Heat+Pumps+354+Scott+Avenue+Penticton+BC,Owner-operated; Red Seal Refrigeration Mechanic; TECA certified; FortisBC Trade Ally; TSBC LEL0201557 + LGA0102887; Daikin dealer; 354 Scott Ave Penticton BC V2A 2J8,Verified_Website
Fehling's Sheet Metal Ltd.,+1-250-492-8076,https://www.fehlingssheetmetal.com,fehlings@shaw.ca,Penticton,BC,"Penticton, South Okanagan",York,Heat Pumps,https://www.google.com/maps/search/Fehlings+Sheet+Metal+560+Okanagan+Avenue+East+Penticton+BC,Family-owned since 1984; York Certified Comfort Expert (CCE); FortisBC Trade Ally; TSBC LGA0003043; Red Seal journeyman technicians; 24/7 emergency; CHBA South Okanagan member; 560 Okanagan Ave E Penticton BC V2A 3K5,Verified_Website
Valleywide Climate Solutions Ltd.,+1-250-328-2115,https://valleywideltd.ca,,Kaleden,BC,"Penticton, Kaleden, Okanagan Falls, Oliver",Multiple,Heat Pumps,https://www.google.com/maps/search/Valleywide+Climate+Solutions+434+Highway+97+Kaleden+BC,HQ Kaleden (rural south of Penticton); BBB A+ (not accredited); since 2015; commercial + residential; refrigeration + walk-in cooler service; 434 Hwy 97 Kaleden BC V0H 1K0,Verified_Website
Sarsons Mechanical Services Ltd.,+1-250-497-8858,https://www.sarsonsmechanical.com,,Okanagan Falls,BC,"Okanagan Falls, Oliver, Penticton, Summerland, Osoyoos, Keremeos, Naramata","Daikin, Amana","Heat Pumps, VRF",https://www.google.com/maps/search/Sarsons+Mechanical+1101+Main+Street+Okanagan+Falls+BC,HQ Okanagan Falls; 30+ years; full Daikin lineup including Daikin VRV (commercial VRF); Amana Lifetime Replacement Warranty; 1-year labour warranty; 1101 Main St Okanagan Falls BC V0H 1R0,Verified_Website
Applewood Heating & Air Conditioning Ltd.,+1-250-549-4777,https://www.applewoodheating.net,,Vernon,BC,"Vernon, North Okanagan",Lennox,Heat Pumps,https://www.google.com/maps/search/Applewood+Heating+Air+Conditioning+1800+Kalamalka+Lake+Road+Vernon+BC,Lennox Premier Dealer; family-owned since 1997; showroom with gas/propane/wood BBQs; full-service: heat pumps + furnaces + hot water + electrical; 8-1800 Kalamalka Lake Rd Vernon BC V1T 6V3,Verified_Website
Air Tech Plumbing Heating Cooling & Green Energy,+1-250-542-7255,https://www.airtechmechanical.ca,info@airtechmechanical.ca,Vernon,BC,"Vernon, Kelowna, West Kelowna, Kamloops",Lennox,Heat Pumps,https://www.google.com/maps/search/Air+Tech+Mechanical+4315+25th+Avenue+Vernon+BC,Lennox authorized dealer; HRAI member; since 2006; 4 BC Interior locations; full-scope: plumbing + HVAC + electrical + geothermal; 24/7; BBB; A-4315 25 Ave Vernon BC V1T 1P5,Verified_Website
Coldstream Mechanical,+1-250-558-9134,https://www.coldstreammech.com,info@coldstreammech.com,Vernon,BC,"Vernon, North Okanagan",Mitsubishi,"Heat Pumps, Hydronics",https://www.google.com/maps/search/Coldstream+Mechanical+Vernon+BC,Mitsubishi dealer; TSBC licence LGA0203359; family-owned since 2015; boiler + heat pump + plumbing; Vernon Chamber member; Top 30 Under 30 award winner; FortisBC + BC Hydro rebate specialist; CAUTION: no physical street address confirmed,Unverified
DBL J HVAC/R,+1-250-503-8154,https://www.dbljhvacr.com,,Vernon,BC,"Vernon, Armstrong, Enderby, Lake Country, Oyama",Multiple,Heat Pumps,https://www.google.com/maps/search/DBL+J+HVACR+11905+Westside+Road+Vernon+BC,Owner-operated; Red Seal Refrigeration Mechanic journeyman; HVAC + refrigeration specialty; serves Lake Country to Enderby; 5-star reviews; 11905 Westside Rd Vernon BC V1H 2G6,Verified_Website
Proair Heating & Cooling,+1-250-832-6911,https://saproair.ca,proair@saproair.ca,Salmon Arm,BC,"Salmon Arm, Chase, Revelstoke, Shuswap",York,Heat Pumps,https://www.google.com/maps/search/Proair+Heating+Cooling+1481+10th+Avenue+SW+Salmon+Arm+BC,York Certified Comfort Expert (CCE) dealer; family-run since 2008; residential and commercial; serves Chase to Revelstoke; 100% satisfaction guarantee; 1481 10th Ave SW Salmon Arm BC V1E 1T2,Verified_Website
EcoFlow Plumbing and Heating,+1-250-832-5846,https://www.ecoflowbc.ca,service@ecoflowbc.ca,Salmon Arm,BC,"Salmon Arm, Vernon, Shuswap",Multiple,Heat Pumps,https://www.google.com/maps/search/EcoFlow+Plumbing+Heating+3061+18th+Avenue+NE+Salmon+Arm+BC,BBB accredited; co-owners in trade since 2005; gas fitting + plumbing + HVAC; 24/7 emergency; locally owned and operated; 3061 18 Ave NE Salmon Arm BC V1E 4N7,Verified_Website
Home Comfort Centre,+1-250-804-4328,https://www.homecomfortcentre.ca,sahcc@telus.net,Salmon Arm,BC,"Salmon Arm, Shuswap Region",Multiple,"Heat Pumps, Hydronics",https://www.google.com/maps/search/Home+Comfort+Centre+1860+10th+Avenue+SW+Salmon+Arm+BC,Since 1998; Master Group dealer (Daikin/York/etc.); full-service: heat pumps + furnaces + boilers + radiant + fireplaces; 24/7 emergency; commercial and residential; 1860 10th Ave SW Salmon Arm BC V1E 4N2,Verified_Website
North Broadview Plumbing & Heating Ltd.,+1-250-832-0255,https://www.northbroadview.ca,,Salmon Arm,BC,"Salmon Arm, Canoe, Shuswap, Revelstoke, Kamloops",Multiple,"Heat Pumps, Hydronics",https://www.google.com/maps/search/North+Broadview+Plumbing+Heating+2120+70th+Street+SE+Salmon+Arm+BC,BBB accredited; 20+ years; in-floor heating + boilers + heat pumps + plumbing; bonded gas fitting; after-hours service; 2120 70 St SE Salmon Arm BC V1E 1X4,Verified_Website
Bee's Knees Plumbing HVAC & Electrical,+1-778-505-2547,https://www.beeskneesplumbingandheating.ca,,Vernon,BC,"Vernon, Kelowna, Salmon Arm, West Kelowna, Enderby, Fintry",Multiple,Heat Pumps,https://www.google.com/maps/search/Bees+Knees+Plumbing+HVAC+3009+43rd+Avenue+Vernon+BC,BBB accredited; owner Kevin U. 18+ years in trades; Red Seal certified; plumbing + HVAC + electrical + gas fitting; 24/7; 3009 43rd Ave #5 Vernon BC V1T 3L4,Verified_Website
